[{"OBJECT_NAME":"STARLINK-32927","OBJECT_ID":"2025-037T","EPOCH":"2026-03-09T22:09:31.516416","MEAN_MOTION":14.98326947,"ECCENTRICITY":0.00029684,"INCLINATION":70.0035,"RA_OF_ASC_NODE":354.001,"ARG_OF_PERICENTER":263.37,"MEAN_ANOMALY":96.7121,"EPHEMERIS_TYPE":0,"CLASSIFICATION_TYPE":"U","NORAD_CAT_ID":63094,"ELEMENT_SET_NO":999,"REV_AT_EPOCH":5858,"BSTAR":-0.00010734745,"MEAN_MOTION_DOT":-1.373e-5,"MEAN_MOTION_DDOT":0},{"OBJECT_NAME":"CZ-2C DEB","OBJECT_ID":"2013-035D","EPOCH":"2026-03-09T23:34:49.287360","MEAN_MOTION":14.88810695,"ECCENTRICITY":0.00555667,"INCLINATION":97.8149,"RA_OF_ASC_NODE":69.2801,"ARG_OF_PERICENTER":125.3803,"MEAN_ANOMALY":235.2624,"EPHEMERIS_TYPE":0,"CLASSIFICATION_TYPE":"U","NORAD_CAT_ID":39205,"ELEMENT_SET_NO":999,"REV_AT_EPOCH":67351,"BSTAR":0.0012724881,"MEAN_MOTION_DOT":0.0001222,"MEAN_MOTION_DDOT":0}]
